[{"OBJECT_NAME":"HAWK-7A","OBJECT_ID":"2023-054P","EPOCH":"2026-03-09T16:32:19.096224","MEAN_MOTION":15.26207271,"ECCENTRICITY":0.0004249,"INCLINATION":97.2827,"RA_OF_ASC_NODE":318.5579,"ARG_OF_PERICENTER":51.2619,"MEAN_ANOMALY":308.8999,"EPHEMERIS_TYPE":0,"CLASSIFICATION_TYPE":"U","NORAD_CAT_ID":56191,"ELEMENT_SET_NO":999,"REV_AT_EPOCH":16184,"BSTAR":0.00030248406,"MEAN_MOTION_DOT":7.758e-5,"MEAN_MOTION_DDOT":0},{"OBJECT_NAME":"STARLINK-30112","OBJECT_ID":"2023-056W","EPOCH":"2026-03-09T22:00:01.999584","MEAN_MOTION":15.26735608,"ECCENTRICITY":0.00016044,"INCLINATION":43.0043,"RA_OF_ASC_NODE":207.1588,"ARG_OF_PERICENTER":293.4585,"MEAN_ANOMALY":272.8451,"EPHEMERIS_TYPE":0,"CLASSIFICATION_TYPE":"U","NORAD_CAT_ID":56306,"ELEMENT_SET_NO":999,"REV_AT_EPOCH":578,"BSTAR":0.0016551164,"MEAN_MOTION_DOT":0.00044398,"MEAN_MOTION_DDOT":0}]
